NORAD_CAT_ID,OBJECT_NAME,OBJECT_TYPE,EPOCH,MEAN_MOTION,ECCENTRICITY,INCLINATION,RA_OF_ASC_NODE,ARG_OF_PERICENTER,MEAN_ANOMALY,BSTAR,MEAN_MOTION_DOT,MEAN_MOTION_DDOT,TLE_LINE0,TLE_LINE1,TLE_LINE2,SEMIMAJOR_AXIS,PERIOD,APOGEE,PERIGEE,DECAYED
52483.0,STARLINK-3875,PAYLOAD,2022-10-27 02:28:19,15.08829298,0.0001889,53.2162,168.9427,66.4493,293.6698,0.00040001,6.082e-05,0.0,0 STARLINK-3875,1 52483U 22049AJ  22300.10299920  .00006082  00000-0  40001-3 0  9992,2 52483  53.2162 168.9427 0001889  66.4493 293.6698 15.08829298 28003,6917.913000000001,95.438,541.085,538.471,0.0
52483.0,STARLINK-3875,PAYLOAD,2022-10-27 19:57:33,15.08845155,0.0001906999999999,53.216,165.6716,65.9487,294.1705,0.00019793,2.864e-05,0.0,0 STARLINK-3875,1 52483U 22049AJ  22300.83163453  .00002864  00000-0  19793-3 0  9991,2 52483  53.2160 165.6716 0001907  65.9487 294.1705 15.08845155 28111,6917.865,95.437,541.049,538.41,0.0
52483.0,STARLINK-3875,PAYLOAD,2022-10-27 21:32:56,15.08844607,0.0001916,53.216,165.3742,65.7094,294.4098,0.00019225,2.773e-05,0.0,0 STARLINK-3875,1 52483U 22049AJ  22300.89787539  .00002773  00000-0  19225-3 0  9993,2 52483  53.2160 165.3742 0001916  65.7094 294.4098 15.08844607 27049,6917.866,95.437,541.057,538.406,0.0
52483.0,STARLINK-3875,PAYLOAD,2022-10-28 08:40:37,15.08852572,0.0001911999999999,53.2161,163.2929,65.3571,294.7621,0.00017785,2.544e-05,0.0,0 STARLINK-3875,1 52483U 22049AJ  22301.36154908  .00002544  00000-0  17785-3 0  9999,2 52483  53.2161 163.2929 0001912  65.3571 294.7621 15.08852572 28198,6917.842,95.437,541.03,538.384,0.0
52483.0,STARLINK-3875,PAYLOAD,2022-10-28 19:48:19,15.08849249,0.0001914,53.2164,161.2114,66.2271,293.8921,9.3208e-05,1.196e-05,0.0,0 STARLINK-3875,1 52483U 22049AJ  22301.82523029  .00001196  00000-0  93208-4 0  9991,2 52483  53.2164 161.2114 0001914  66.2271 293.8921 15.08849249 28262,6917.852,95.437,541.0409999999998,538.393,0.0
52483.0,STARLINK-3875,PAYLOAD,2022-10-29 00:34:28,15.08874608,0.0001738,53.2168,160.3197,65.2364,294.8809,-0.00026253,-4.468e-05,0.0,0 STARLINK-3875,1 52483U 22049AJ  22302.02393924 -.00004468  00000-0 -26253-3 0  9995,2 52483  53.2168 160.3197 0001738  65.2364 294.8809 15.08874608 27210,6917.775,95.435,540.842,538.437,0.0
52483.0,STARLINK-3875,PAYLOAD,2022-10-29 21:14:29,15.08852901,0.0001894,53.2167,156.4541,67.9064,292.213,8.5091e-05,1.067e-05,0.0,0 STARLINK-3875,1 52483U 22049AJ  22302.88505947  .00001067  00000-0  85091-4 0  9995,2 52483  53.2167 156.4541 0001894  67.9064 292.2130 15.08852901 28422,6917.840999999999,95.437,541.016,538.396,0.0
52483.0,STARLINK-3875,PAYLOAD,2022-10-30 00:25:15,15.08854277,0.0001849,53.2164,155.8586,66.6727,293.446,9.3788e-05,1.205e-05,0.0,0 STARLINK-3875,1 52483U 22049AJ  22303.01753744  .00001205  00000-0  93788-4 0  9997,2 52483  53.2164 155.8586 0001849  66.6727 293.4460 15.08854277 28442,6917.837,95.437,540.981,538.423,0.0
52483.0,STARLINK-3875,PAYLOAD,2022-10-30 21:05:17,15.0883064,0.0001717,53.2159,151.9924,64.267,295.8499,-8.0449e-05,-1.568e-05,0.0,0 STARLINK-3875,1 52483U 22049AJ  22303.87867392 -.00001568  00000-0 -80449-4 0  9990,2 52483  53.2159 151.9924 0001717  64.2670 295.8499 15.08830640 28574,6917.909000000002,95.438,540.962,538.586,0.0
52483.0,STARLINK-3875,PAYLOAD,2022-10-31 06:37:36,15.08825028,0.0001704,53.2156,150.2085,62.6457,297.4708,-0.00015089,-2.688e-05,0.0,0 STARLINK-3875,1 52483U 22049AJ  22304.27612197 -.00002688  00000-0 -15089-3 0  9997,2 52483  53.2156 150.2085 0001704  62.6457 297.4708 15.08825028 28634,6917.926,95.439,540.97,538.612,0.0
52483.0,STARLINK-3875,PAYLOAD,2022-10-31 16:09:55,15.08827729,0.0001624,53.2156,148.4239,63.081,297.0348,-0.00010539,-1.964e-05,0.0,0 STARLINK-3875,1 52483U 22049AJ  22304.67356240 -.00001964  00000-0 -10539-3 0  9996,2 52483  53.2156 148.4239 0001624  63.0810 297.0348 15.08827729 27616,6917.918000000002,95.438,540.906,538.659,0.0
52483.0,STARLINK-3875,PAYLOAD,2022-11-01 00:06:51,15.08833489,0.0001696,53.2154,146.9373,61.6233,298.493,-0.00010251,-1.919e-05,0.0,0 STARLINK-3875,1 52483U 22049AJ  22305.00476113 -.00001919  00000-0 -10251-3 0  9997,2 52483  53.2154 146.9373 0001696  61.6233 298.4930 15.08833489 28745,6917.9,95.438,540.939,538.592,0.0
52483.0,STARLINK-3875,PAYLOAD,2022-11-01 16:00:42,15.08834637,0.0001624,53.2156,143.9632,65.0274,295.0887,3.96e-05,3.42e-06,0.0,0 STARLINK-3875,1 52483U 22049AJ  22305.66716095  .00000342  00000-0  39600-4 0  9992,2 52483  53.2156 143.9632 0001624  65.0274 295.0887 15.08834637 28847,6917.897,95.438,540.885,538.638,0.0
52483.0,STARLINK-3875,PAYLOAD,2022-11-02 01:33:01,15.08838805,0.0001684,53.2155,142.179,65.9019,294.2149,0.00010505,1.384e-05,0.0,0 STARLINK-3875,1 52483U 22049AJ  22306.06459892  .00001384  00000-0  10505-3 0  9995,2 52483  53.2155 142.1790 0001684  65.9019 294.2149 15.08838805 27824,6917.884,95.438,540.914,538.5840000000002,0.0
52483.0,STARLINK-3875,PAYLOAD,2022-11-02 06:19:10,15.08832855,0.0001661,53.2156,141.287,63.6548,296.4614,0.00025621,3.791e-05,0.0,0 STARLINK-3875,1 52483U 22049AJ  22306.26332154  .00003791  00000-0  25621-3 0  9997,2 52483  53.2156 141.2870 0001661  63.6548 296.4614 15.08832855 28934,6917.901999999999,95.438,540.9159999999998,538.618,0.0
52483.0,STARLINK-3875,PAYLOAD,2022-11-02 15:51:29,15.08836234,0.0001751,53.2154,139.5029,64.8425,295.2748,0.00020467,2.97e-05,0.0,0 STARLINK-3875,1 52483U 22049AJ  22306.66076373  .00002970  00000-0  20467-3 0  9990,2 52483  53.2154 139.5029 0001751  64.8425 295.2748 15.08836234 28991,6917.892,95.438,540.9680000000002,538.5459999999998,0.0
52483.0,STARLINK-3875,PAYLOAD,2022-11-03 01:23:49,15.08834975,0.0001607,53.2158,137.7183,63.5378,296.5779,0.00012953,1.774e-05,0.0,0 STARLINK-3875,1 52483U 22049AJ  22307.05820829  .00001774  00000-0  12953-3 0  9999,2 52483  53.2158 137.7183 0001607  63.5378 296.5779 15.08834975 27974,6917.896,95.438,540.872,538.649,0.0
52483.0,STARLINK-3875,PAYLOAD,2022-11-03 06:09:58,15.08838272,0.0001639,53.2158,136.8263,63.692,296.4240000000001,0.00011862,1.6e-05,0.0,0 STARLINK-3875,1 52483U 22049AJ  22307.25692708  .00001600  00000-0  11862-3 0  9990,2 52483  53.2158 136.8263 0001639  63.6920 296.4240 15.08838272 29082,6917.886,95.438,540.885,538.617,0.0
52483.0,STARLINK-3875,PAYLOAD,2022-11-03 15:42:16,15.08848075,0.0001486,53.2164,135.0416,61.7143,298.3999,9.2315e-05,1.182e-05,0.0,0 STARLINK-3875,1 52483U 22049AJ  22307.65436111  .00001182  00000-0  92315-4 0  9996,2 52483  53.2164 135.0416 0001486  61.7143 298.3999 15.08848075 28067,6917.856,95.437,540.749,538.693,0.0
52483.0,STARLINK-3875,PAYLOAD,2022-11-04 06:00:44,15.08858382,0.0001588,53.2155,132.3655,62.2647,297.8506,0.00026633,3.955e-05,0.0,0 STARLINK-3875,1 52483U 22049AJ  22308.25051293  .00003955  00000-0  26633-3 0  9996,2 52483  53.2155 132.3655 0001588  62.2647 297.8506 15.08858382 28150,6917.824000000001,95.436,540.788,538.591,0.0
52483.0,STARLINK-3875,PAYLOAD,2022-11-04 18:43:49,15.08848249,0.0001674,53.2152,129.9864,65.7013,294.4153,0.00012233,1.66e-05,0.0,0 STARLINK-3875,1 52483U 22049AJ  22308.78043555  .00001660  00000-0  12233-3 0  9998,2 52483  53.2152 129.9864 0001674  65.7013 294.4153 15.08848249 28233,6917.855,95.437,540.878,538.562,0.0
52483.0,STARLINK-3875,PAYLOAD,2022-11-04 20:19:12,15.08848073,0.0001673,53.2157,129.6895,65.2643,294.8524,0.00013852,1.918e-05,0.0,0 STARLINK-3875,1 52483U 22049AJ  22308.84667521  .00001918  00000-0  13852-3 0  9994,2 52483  53.2157 129.6895 0001673  65.2643 294.8524 15.08848073 29324,6917.856,95.437,540.878,538.563,0.0
52483.0,STARLINK-3875,PAYLOAD,2022-11-04 23:29:58,15.08848934,0.0001657,53.2161,129.0944,62.8777,297.2384,0.00014618,2.04e-05,0.0,0 STARLINK-3875,1 52483U 22049AJ  22308.97915203  .00002040  00000-0  14618-3 0  9999,2 52483  53.2161 129.0944 0001657  62.8777 297.2384 15.08848934 29340,6917.853,95.437,540.864,538.572,0.0
52483.0,STARLINK-3875,PAYLOAD,2022-11-05 18:34:36,15.08832415,0.0001520999999999,53.2149,125.5263,57.2765,302.8373,-0.00016998,-2.992e-05,0.0,0 STARLINK-3875,1 52483U 22049AJ  22309.77403880 -.00002992  00000-0 -16998-3 0  9992,2 52483  53.2149 125.5263 0001521  57.2765 302.8373 15.08832415 28387,6917.904,95.438,540.821,538.716,0.0
52483.0,STARLINK-3875,PAYLOAD,2022-11-05 23:20:46,15.08833242,0.0001493,53.2156,124.6338,58.6742,301.4396,-0.00018392,-3.213e-05,0.0,0 STARLINK-3875,1 52483U 22049AJ  22309.97275920 -.00003213  00000-0 -18392-3 0  9993,2 52483  53.2156 124.6338 0001493  58.6742 301.4396 15.08833242 29498,6917.901,95.438,540.799,538.7330000000002,0.0
52483.0,STARLINK-3875,PAYLOAD,2022-11-06 20:00:47,15.08835335,0.0001537,53.2164,120.7682,58.6976,301.4167,-2.1883e-05,-6.36e-06,0.0,0 STARLINK-3875,1 52483U 22049AJ  22310.83388275 -.00000636  00000-0 -21883-4 0  9994,2 52483  53.2164 120.7682 0001537  58.6976 301.4167 15.08835335 28540,6917.895,95.438,540.823,538.696,0.0
52483.0,STARLINK-3875,PAYLOAD,2022-11-07 11:54:37,15.08863104,0.0001629999999999,53.2161,117.794,53.2193,306.8948,-0.00029092,-4.918e-05,0.0,0 STARLINK-3875,1 52483U 22049AJ  22311.49627011 -.00004918  00000-0 -29092-3 0  9997,2 52483  53.2161 117.7940 0001630  53.2193 306.8948 15.08863104 28648,6917.81,95.436,540.802,538.547,0.0
52483.0,STARLINK-3875,PAYLOAD,2022-11-07 19:51:33,15.08840655,0.0001482,53.2163,116.3076,55.3717,304.7415,0.00024847,3.669e-05,0.0,0 STARLINK-3875,1 52483U 22049AJ  22311.82747612  .00003669  00000-0  24847-3 0  9997,2 52483  53.2163 116.3076 0001482  55.3717 304.7415 15.08840655 28692,6917.878000000002,95.438,540.769,538.7180000000002,0.0
52483.0,STARLINK-3875,PAYLOAD,2022-11-07 23:02:20,15.08846416,0.0001528,53.2153,115.7124,54.863,305.2505,0.00034029,5.133e-05,0.0,0 STARLINK-3875,1 52483U 22049AJ  22311.95995763  .00005133  00000-0  34029-3 0  9994,2 52483  53.2153 115.7124 0001528  54.8630 305.2505 15.08846416 29796,6917.861,95.437,540.783,538.669,0.0
